{
  "type": "FeatureCollection",
  "features": [
    {
      "type": "Feature",
      "properties": {
        "norad_id": 29268,
        "name": "ARIRANG-2 (KOMPSAT-2)",
        "group": "resource",
        "lat": 8.299856969282343,
        "lon": 9.744301750980034,
        "alt_km": 680.3684799509992,
        "timestamp": "2025-12-26T19:22:38.550610+00:00",
        "meta_object_name": "ARIRANG-2 (KOMPSAT-2)",
        "meta_object_id": "2006-031A",
        "meta_epoch": "2025-12-26T15:39:21.184128",
        "meta_mean_motion": 14.64506305,
        "meta_eccentricity": 0.00131186,
        "meta_inclination": 97.826,
        "meta_ra_of_asc_node": 188.4472,
        "meta_arg_of_pericenter": 261.1459,
        "meta_mean_anomaly": 173.4784,
        "meta_ephemeris_type": 0,
        "meta_classification_type": "U",
        "meta_norad_cat_id": 29268,
        "meta_element_set_no": 999,
        "meta_rev_at_epoch": 3622,
        "meta_bstar": 0.00010931466,
        "meta_mean_motion_dot": 5.35e-06,
        "meta_mean_motion_ddot": 0,
        "tle_line1": "1 29268U 06031A   25360.65232852  .00000535  00000+0  10931-3 0  9995",
        "tle_line2": "2 29268  97.8260 188.4472 0013118 261.1459 173.4784 14.64506305 36228"
      },
      "geometry": {
        "type": "Point",
        "coordinates": [
          9.744301750980034,
          8.299856969282343
        ]
      }
    },
    {
      "type": "Feature",
      "properties": {
        "norad_id": 29709,
        "name": "LAPAN-TUBSAT",
        "group": "resource",
        "lat": 78.66989109672997,
        "lon": -143.25382955630678,
        "alt_km": 600.3270967119479,
        "timestamp": "2025-12-26T19:22:38.550620+00:00",
        "meta_object_name": "LAPAN-TUBSAT",
        "meta_object_id": "2007-001A",
        "meta_epoch": "2025-12-26T14:05:24.504288",
        "meta_mean_motion": 14.85689698,
        "meta_eccentricity": 0.00130824,
        "meta_inclination": 98.1267,
        "meta_ra_of_asc_node": 351.0287,
        "meta_arg_of_pericenter": 32.798,
        "meta_mean_anomaly": 327.4044,
        "meta_ephemeris_type": 0,
        "meta_classification_type": "U",
        "meta_norad_cat_id": 29709,
        "meta_element_set_no": 999,
        "meta_rev_at_epoch": 2552,
        "meta_bstar": 7.3068751e-05,
        "meta_mean_motion_dot": 5.77e-06,
        "meta_mean_motion_ddot": 0,
        "tle_line1": "1 29709U 07001A   25360.58708917  .00000577  00000+0  73069-4 0  9993",
        "tle_line2": "2 29709  98.1267 351.0287 0013082  32.7980 327.4044 14.85689698 25523"
      },
      "geometry": {
        "type": "Point",
        "coordinates": [
          -143.25382955630678,
          78.66989109672997
        ]
      }
    },
    {
      "type": "Feature",
      "properties": {
        "norad_id": 31113,
        "name": "HAIYANG-1B",
        "group": "resource",
        "lat": 79.54998385285337,
        "lon": -142.86955060765536,
        "alt_km": 782.5761882894467,
        "timestamp": "2025-12-26T19:22:38.550631+00:00",
        "meta_object_name": "HAIYANG-1B",
        "meta_object_id": "2007-010A",
        "meta_epoch": "2025-12-26T12:13:01.450848",
        "meta_mean_motion": 14.3096953,
        "meta_eccentricity": 0.00135155,
        "meta_inclination": 98.3331,
        "meta_ra_of_asc_node": 344.2192,
        "meta_arg_of_pericenter": 358.4031,
        "meta_mean_anomaly": 1.7108,
        "meta_ephemeris_type": 0,
        "meta_classification_type": "U",
        "meta_norad_cat_id": 31113,
        "meta_element_set_no": 999,
        "meta_rev_at_epoch": 97593,
        "meta_bstar": 6.670665e-05,
        "meta_mean_motion_dot": 1.34e-06,
        "meta_mean_motion_ddot": 0,
        "tle_line1": "1 31113U 07010A   25360.50904457  .00000134  00000+0  66707-4 0  9994",
        "tle_line2": "2 31113  98.3331 344.2192 0013515 358.4031   1.7108 14.30969530975932"
      },
      "geometry": {
        "type": "Point",
        "coordinates": [
          -142.86955060765536,
          79.54998385285337
        ]
      }
    },
    {
      "type": "Feature",
      "properties": {
        "norad_id": 31598,
        "name": "COSMO-SKYMED 1",
        "group": "resource",
        "lat": -26.017332936426214,
        "lon": 2.421337601762869,
        "alt_km": 585.8955879492869,
        "timestamp": "2025-12-26T19:22:38.550642+00:00",
        "meta_object_name": "COSMO-SKYMED 1",
        "meta_object_id": "2007-023A",
        "meta_epoch": "2025-12-26T15:14:52.022112",
        "meta_mean_motion": 14.95866804,
        "meta_eccentricity": 0.00011328,
        "meta_inclination": 97.8838,
        "meta_ra_of_asc_node": 186.1264,
        "meta_arg_of_pericenter": 77.5679,
        "meta_mean_anomaly": 282.5668,
        "meta_ephemeris_type": 0,
        "meta_classification_type": "U",
        "meta_norad_cat_id": 31598,
        "meta_element_set_no": 999,
        "meta_rev_at_epoch": 398,
        "meta_bstar": 0.00030501383,
        "meta_mean_motion_dot": 3.35e-05,
        "meta_mean_motion_ddot": 0,
        "tle_line1": "1 31598U 07023A   25360.63532433  .00003350  00000+0  30501-3 0  9995",
        "tle_line2": "2 31598  97.8838 186.1264 0001132  77.5679 282.5668 14.95866804  3985"
      },
      "geometry": {
        "type": "Point",
        "coordinates": [
          2.421337601762869,
          -26.017332936426214
        ]
      }
    },
    {
      "type": "Feature",
      "properties": {
        "norad_id": 31698,
        "name": "TERRASAR-X",
        "group": "resource",
        "lat": -38.22120511680541,
        "lon": 11.893108347960375,
        "alt_km": 515.4730294394212,
        "timestamp": "2025-12-26T19:22:38.550652+00:00",
        "meta_object_name": "TERRASAR-X",
        "meta_object_id": "2007-026A",
        "meta_epoch": "2025-12-26T13:13:25.268160",
        "meta_mean_motion": 15.19159007,
        "meta_eccentricity": 0.0001831,
        "meta_inclination": 97.4449,
        "meta_ra_of_asc_node": 5.7296,
        "meta_arg_of_pericenter": 80.7089,
        "meta_mean_anomaly": 279.4352,
        "meta_ephemeris_type": 0,
        "meta_classification_type": "U",
        "meta_norad_cat_id": 31698,
        "meta_element_set_no": 999,
        "meta_rev_at_epoch": 2701,
        "meta_bstar": 7.451225e-05,
        "meta_mean_motion_dot": 1.498e-05,
        "meta_mean_motion_ddot": 0,
        "tle_line1": "1 31698U 07026A   25360.55098690  .00001498  00000+0  74512-4 0  9994",
        "tle_line2": "2 31698  97.4449   5.7296 0001831  80.7089 279.4352 15.19159007 27010"
      },
      "geometry": {
        "type": "Point",
        "coordinates": [
          11.893108347960375,
          -38.22120511680541
        ]
      }
    },
    {
      "type": "Feature",
      "properties": {
        "norad_id": 32060,
        "name": "WORLDVIEW-1 (WV-1)",
        "group": "resource",
        "lat": -44.412339470350965,
        "lon": -69.21613710710132,
        "alt_km": 501.7567460221335,
        "timestamp": "2025-12-26T19:22:38.550663+00:00",
        "meta_object_name": "WORLDVIEW-1 (WV-1)",
        "meta_object_id": "2007-041A",
        "meta_epoch": "2025-12-26T13:39:58.675104",
        "meta_mean_motion": 15.23982891,
        "meta_eccentricity": 0.00030548,
        "meta_inclination": 97.3818,
        "meta_ra_of_asc_node": 117.8466,
        "meta_arg_of_pericenter": 349.223,
        "meta_mean_anomaly": 10.8942,
        "meta_ephemeris_type": 0,
        "meta_classification_type": "U",
        "meta_norad_cat_id": 32060,
        "meta_element_set_no": 999,
        "meta_rev_at_epoch": 1658,
        "meta_bstar": 0.00036111193,
        "meta_mean_motion_dot": 8.675e-05,
        "meta_mean_motion_ddot": 0,
        "tle_line1": "1 32060U 07041A   25360.56942911  .00008675  00000+0  36111-3 0  9996",
        "tle_line2": "2 32060  97.3818 117.8466 0003054 349.2230  10.8942 15.23982891 16589"
      },
      "geometry": {
        "type": "Point",
        "coordinates": [
          -69.21613710710132,
          -44.412339470350965
        ]
      }
    },
    {
      "type": "Feature",
      "properties": {
        "norad_id": 32289,
        "name": "YAOGAN-3",
        "group": "resource",
        "lat": 63.0704346725177,
        "lon": -136.96576347892537,
        "alt_km": 591.3318817840964,
        "timestamp": "2025-12-26T19:22:38.550673+00:00",
        "meta_object_name": "YAOGAN-3",
        "meta_object_id": "2007-055A",
        "meta_epoch": "2025-12-26T15:38:09.415968",
        "meta_mean_motion": 14.89925997,
        "meta_eccentricity": 0.00012317,
        "meta_inclination": 97.8357,
        "meta_ra_of_asc_node": 27.1502,
        "meta_arg_of_pericenter": 80.2244,
        "meta_mean_anomaly": 279.9112,
        "meta_ephemeris_type": 0,
        "meta_classification_type": "U",
        "meta_norad_cat_id": 32289,
        "meta_element_set_no": 999,
        "meta_rev_at_epoch": 98016,
        "meta_bstar": 0.00024336207,
        "meta_mean_motion_dot": 2.287e-05,
        "meta_mean_motion_ddot": 0,
        "tle_line1": "1 32289U 07055A   25360.65149787  .00002287  00000+0  24336-3 0  9993",
        "tle_line2": "2 32289  97.8357  27.1502 0001231  80.2244 279.9112 14.89925997980167"
      },
      "geometry": {
        "type": "Point",
        "coordinates": [
          -136.96576347892537,
          63.0704346725177
        ]
      }
    }
  ]
}